<?xml version="1.0" encoding="UTF-8"?>
<ndm xmlns:xsi="http://www.w3.org/2001/XMLSchema-instance" xsi:noNamespaceSchemaLocation="https://sanaregistry.org/r/ndmxml_unqualified/ndmxml-2.0.0-master-2.0.xsd">
<omm id="CCSDS_OMM_VERS" version="2.0">
<header><CREATION_DATE/><ORIGINATOR/></header><body><segment><metadata><OBJECT_NAME>ORBCOMM FM33</OBJECT_NAME><OBJECT_ID>1999-065D</OBJECT_ID><CENTER_NAME>EARTH</CENTER_NAME><REF_FRAME>TEME</REF_FRAME><TIME_SYSTEM>UTC</TIME_SYSTEM><MEAN_ELEMENT_THEORY>SGP4</MEAN_ELEMENT_THEORY></metadata><data><meanElements><EPOCH>2024-06-29T20:10:23.335104</EPOCH><MEAN_MOTION>14.37885394</MEAN_MOTION><ECCENTRICITY>.0006223</ECCENTRICITY><INCLINATION>45.0280</INCLINATION><RA_OF_ASC_NODE>231.5509</RA_OF_ASC_NODE><ARG_OF_PERICENTER>88.6394</ARG_OF_PERICENTER><MEAN_ANOMALY>271.5168</MEAN_ANOMALY></meanElements><tleParameters><EPHEMERIS_TYPE>0</EPHEMERIS_TYPE><CLASSIFICATION_TYPE>U</CLASSIFICATION_TYPE><NORAD_CAT_ID>25983</NORAD_CAT_ID><ELEMENT_SET_NO>999</ELEMENT_SET_NO><REV_AT_EPOCH>28531</REV_AT_EPOCH><BSTAR>.58426E-3</BSTAR><MEAN_MOTION_DOT>.1637E-4</MEAN_MOTION_DOT><MEAN_MOTION_DDOT>0</MEAN_MOTION_DDOT></tleParameters></data></segment></body></omm>
<omm id="CCSDS_OMM_VERS" version="2.0">
<header><CREATION_DATE/><ORIGINATOR/></header><body><segment><metadata><OBJECT_NAME>ORBCOMM FM36</OBJECT_NAME><OBJECT_ID>1999-065E</OBJECT_ID><CENTER_NAME>EARTH</CENTER_NAME><REF_FRAME>TEME</REF_FRAME><TIME_SYSTEM>UTC</TIME_SYSTEM><MEAN_ELEMENT_THEORY>SGP4</MEAN_ELEMENT_THEORY></metadata><data><meanElements><EPOCH>2024-06-30T03:54:07.916832</EPOCH><MEAN_MOTION>14.35807213</MEAN_MOTION><ECCENTRICITY>.0003204</ECCENTRICITY><INCLINATION>45.0405</INCLINATION><RA_OF_ASC_NODE>316.3875</RA_OF_ASC_NODE><ARG_OF_PERICENTER>298.9161</ARG_OF_PERICENTER><MEAN_ANOMALY>61.1365</MEAN_ANOMALY></meanElements><tleParameters><EPHEMERIS_TYPE>0</EPHEMERIS_TYPE><CLASSIFICATION_TYPE>U</CLASSIFICATION_TYPE><NORAD_CAT_ID>25984</NORAD_CAT_ID><ELEMENT_SET_NO>999</ELEMENT_SET_NO><REV_AT_EPOCH>28437</REV_AT_EPOCH><BSTAR>.91337E-3</BSTAR><MEAN_MOTION_DOT>.2527E-4</MEAN_MOTION_DOT><MEAN_MOTION_DDOT>0</MEAN_MOTION_DDOT></tleParameters></data></segment></body></omm>
<omm id="CCSDS_OMM_VERS" version="2.0">
<header><CREATION_DATE/><ORIGINATOR/></header><body><segment><metadata><OBJECT_NAME>ORBCOMM FM35</OBJECT_NAME><OBJECT_ID>1999-065F</OBJECT_ID><CENTER_NAME>EARTH</CENTER_NAME><REF_FRAME>TEME</REF_FRAME><TIME_SYSTEM>UTC</TIME_SYSTEM><MEAN_ELEMENT_THEORY>SGP4</MEAN_ELEMENT_THEORY></metadata><data><meanElements><EPOCH>2024-06-29T19:16:09.708096</EPOCH><MEAN_MOTION>14.35323220</MEAN_MOTION><ECCENTRICITY>.0002313</ECCENTRICITY><INCLINATION>45.0414</INCLINATION><RA_OF_ASC_NODE>320.9085</RA_OF_ASC_NODE><ARG_OF_PERICENTER>97.0793</ARG_OF_PERICENTER><MEAN_ANOMALY>263.0318</MEAN_ANOMALY></meanElements><tleParameters><EPHEMERIS_TYPE>0</EPHEMERIS_TYPE><CLASSIFICATION_TYPE>U</CLASSIFICATION_TYPE><NORAD_CAT_ID>25985</NORAD_CAT_ID><ELEMENT_SET_NO>999</ELEMENT_SET_NO><REV_AT_EPOCH>28412</REV_AT_EPOCH><BSTAR>.63708E-3</BSTAR><MEAN_MOTION_DOT>.1701E-4</MEAN_MOTION_DOT><MEAN_MOTION_DDOT>0</MEAN_MOTION_DDOT></tleParameters></data></segment></body></omm>
<omm id="CCSDS_OMM_VERS" version="2.0">
<header><CREATION_DATE/><ORIGINATOR/></header><body><segment><metadata><OBJECT_NAME>ORBCOMM FM34</OBJECT_NAME><OBJECT_ID>1999-065G</OBJECT_ID><CENTER_NAME>EARTH</CENTER_NAME><REF_FRAME>TEME</REF_FRAME><TIME_SYSTEM>UTC</TIME_SYSTEM><MEAN_ELEMENT_THEORY>SGP4</MEAN_ELEMENT_THEORY></metadata><data><meanElements><EPOCH>2024-06-29T16:54:50.725728</EPOCH><MEAN_MOTION>14.35298952</MEAN_MOTION><ECCENTRICITY>.0002245</ECCENTRICITY><INCLINATION>45.0408</INCLINATION><RA_OF_ASC_NODE>321.9157</RA_OF_ASC_NODE><ARG_OF_PERICENTER>6.1885</ARG_OF_PERICENTER><MEAN_ANOMALY>353.8990</MEAN_ANOMALY></meanElements><tleParameters><EPHEMERIS_TYPE>0</EPHEMERIS_TYPE><CLASSIFICATION_TYPE>U</CLASSIFICATION_TYPE><NORAD_CAT_ID>25986</NORAD_CAT_ID><ELEMENT_SET_NO>999</ELEMENT_SET_NO><REV_AT_EPOCH>28422</REV_AT_EPOCH><BSTAR>.74404E-3</BSTAR><MEAN_MOTION_DOT>.201E-4</MEAN_MOTION_DOT><MEAN_MOTION_DDOT>0</MEAN_MOTION_DDOT></tleParameters></data></segment></body></omm>
<omm id="CCSDS_OMM_VERS" version="2.0">
<header><CREATION_DATE/><ORIGINATOR/></header><body><segment><metadata><OBJECT_NAME>ORBCOMM FM38</OBJECT_NAME><OBJECT_ID>2008-031A</OBJECT_ID><CENTER_NAME>EARTH</CENTER_NAME><REF_FRAME>TEME</REF_FRAME><TIME_SYSTEM>UTC</TIME_SYSTEM><MEAN_ELEMENT_THEORY>SGP4</MEAN_ELEMENT_THEORY></metadata><data><meanElements><EPOCH>2024-06-30T03:27:24.435648</EPOCH><MEAN_MOTION>14.77869370</MEAN_MOTION><ECCENTRICITY>.0006139</ECCENTRICITY><INCLINATION>48.4387</INCLINATION><RA_OF_ASC_NODE>188.8434</RA_OF_ASC_NODE><ARG_OF_PERICENTER>328.5371</ARG_OF_PERICENTER><MEAN_ANOMALY>31.5175</MEAN_ANOMALY></meanElements><tleParameters><EPHEMERIS_TYPE>0</EPHEMERIS_TYPE><CLASSIFICATION_TYPE>U</CLASSIFICATION_TYPE><NORAD_CAT_ID>33060</NORAD_CAT_ID><ELEMENT_SET_NO>999</ELEMENT_SET_NO><REV_AT_EPOCH>86260</REV_AT_EPOCH><BSTAR>.49423E-3</BSTAR><MEAN_MOTION_DOT>.3386E-4</MEAN_MOTION_DOT><MEAN_MOTION_DDOT>0</MEAN_MOTION_DDOT></tleParameters></data></segment></body></omm>
<omm id="CCSDS_OMM_VERS" version="2.0">
<header><CREATION_DATE/><ORIGINATOR/></header><body><segment><metadata><OBJECT_NAME>ORBCOMM FM41</OBJECT_NAME><OBJECT_ID>2008-031B</OBJECT_ID><CENTER_NAME>EARTH</CENTER_NAME><REF_FRAME>TEME</REF_FRAME><TIME_SYSTEM>UTC</TIME_SYSTEM><MEAN_ELEMENT_THEORY>SGP4</MEAN_ELEMENT_THEORY></metadata><data><meanElements><EPOCH>2024-06-29T11:37:06.365280</EPOCH><MEAN_MOTION>14.77590209</MEAN_MOTION><ECCENTRICITY>.0005394</ECCENTRICITY><INCLINATION>48.4424</INCLINATION><RA_OF_ASC_NODE>198.7114</RA_OF_ASC_NODE><ARG_OF_PERICENTER>312.9935</ARG_OF_PERICENTER><MEAN_ANOMALY>200.6935</MEAN_ANOMALY></meanElements><tleParameters><EPHEMERIS_TYPE>0</EPHEMERIS_TYPE><CLASSIFICATION_TYPE>U</CLASSIFICATION_TYPE><NORAD_CAT_ID>33061</NORAD_CAT_ID><ELEMENT_SET_NO>999</ELEMENT_SET_NO><REV_AT_EPOCH>86201</REV_AT_EPOCH><BSTAR>.45931E-3</BSTAR><MEAN_MOTION_DOT>.3111E-4</MEAN_MOTION_DOT><MEAN_MOTION_DDOT>0</MEAN_MOTION_DDOT></tleParameters></data></segment></body></omm>
<omm id="CCSDS_OMM_VERS" version="2.0">
<header><CREATION_DATE/><ORIGINATOR/></header><body><segment><metadata><OBJECT_NAME>ORBCOMM FM29</OBJECT_NAME><OBJECT_ID>2008-031C</OBJECT_ID><CENTER_NAME>EARTH</CENTER_NAME><REF_FRAME>TEME</REF_FRAME><TIME_SYSTEM>UTC</TIME_SYSTEM><MEAN_ELEMENT_THEORY>SGP4</MEAN_ELEMENT_THEORY></metadata><data><meanElements><EPOCH>2024-06-29T19:34:43.709088</EPOCH><MEAN_MOTION>14.77537262</MEAN_MOTION><ECCENTRICITY>.0007283</ECCENTRICITY><INCLINATION>48.4379</INCLINATION><RA_OF_ASC_NODE>205.1757</RA_OF_ASC_NODE><ARG_OF_PERICENTER>312.4761</ARG_OF_PERICENTER><MEAN_ANOMALY>217.8457</MEAN_ANOMALY></meanElements><tleParameters><EPHEMERIS_TYPE>0</EPHEMERIS_TYPE><CLASSIFICATION_TYPE>U</CLASSIFICATION_TYPE><NORAD_CAT_ID>33062</NORAD_CAT_ID><ELEMENT_SET_NO>999</ELEMENT_SET_NO><REV_AT_EPOCH>86197</REV_AT_EPOCH><BSTAR>.45173E-3</BSTAR><MEAN_MOTION_DOT>.3052E-4</MEAN_MOTION_DOT><MEAN_MOTION_DDOT>0</MEAN_MOTION_DDOT></tleParameters></data></segment></body></omm>
<omm id="CCSDS_OMM_VERS" version="2.0">
<header><CREATION_DATE/><ORIGINATOR/></header><body><segment><metadata><OBJECT_NAME>ORBCOMM FM39</OBJECT_NAME><OBJECT_ID>2008-031D</OBJECT_ID><CENTER_NAME>EARTH</CENTER_NAME><REF_FRAME>TEME</REF_FRAME><TIME_SYSTEM>UTC</TIME_SYSTEM><MEAN_ELEMENT_THEORY>SGP4</MEAN_ELEMENT_THEORY></metadata><data><meanElements><EPOCH>2024-06-30T04:33:44.137152</EPOCH><MEAN_MOTION>14.76501004</MEAN_MOTION><ECCENTRICITY>.0008208</ECCENTRICITY><INCLINATION>48.4394</INCLINATION><RA_OF_ASC_NODE>224.3111</RA_OF_ASC_NODE><ARG_OF_PERICENTER>290.2433</ARG_OF_PERICENTER><MEAN_ANOMALY>69.7598</MEAN_ANOMALY></meanElements><tleParameters><EPHEMERIS_TYPE>0</EPHEMERIS_TYPE><CLASSIFICATION_TYPE>U</CLASSIFICATION_TYPE><NORAD_CAT_ID>33063</NORAD_CAT_ID><ELEMENT_SET_NO>999</ELEMENT_SET_NO><REV_AT_EPOCH>86214</REV_AT_EPOCH><BSTAR>.40949E-3</BSTAR><MEAN_MOTION_DOT>.2678E-4</MEAN_MOTION_DOT><MEAN_MOTION_DDOT>0</MEAN_MOTION_DDOT></tleParameters></data></segment></body></omm>

</ndm>
