ORBCOMM FM33            
1 25983U 99065D   24181.84054786  .00001637  00000+0  58426-3 0  9998
2 25983  45.0280 231.5509 0006223  88.6394 271.5168 14.37885394285315
ORBCOMM FM36            
1 25984U 99065E   24182.16259163  .00002527  00000+0  91337-3 0  9998
2 25984  45.0405 316.3875 0003204 298.9161  61.1365 14.35807213284376
ORBCOMM FM35            
1 25985U 99065F   24181.80289014  .00001701  00000+0  63708-3 0  9991
2 25985  45.0414 320.9085 0002313  97.0793 263.0318 14.35323220284125
ORBCOMM FM34            
1 25986U 99065G   24181.70475377  .00002010  00000+0  74404-3 0  9999
2 25986  45.0408 321.9157 0002245   6.1885 353.8990 14.35298952284225
ORBCOMM FM38            
1 33060U 08031A   24182.14403282  .00003386  00000+0  49423-3 0  9999
2 33060  48.4387 188.8434 0006139 328.5371  31.5175 14.77869370862608
ORBCOMM FM41            
1 33061U 08031B   24181.48410145  .00003111  00000+0  45931-3 0  9998
2 33061  48.4424 198.7114 0005394 312.9935 200.6935 14.77590209862011
ORBCOMM FM29            
1 33062U 08031C   24181.81578367  .00003052  00000+0  45173-3 0  9999
2 33062  48.4379 205.1757 0007283 312.4761 217.8457 14.77537262861971
ORBCOMM FM39            
1 33063U 08031D   24182.19009418  .00002678  00000+0  40949-3 0  9997
2 33063  48.4394 224.3111 0008208 290.2433  69.7598 14.76501004862147
